0 FENGYUN 1C DEB
1 37057U 99025EER 13284.20577953  .00000574  00000-0  33923-3 0  1736
2 37057 099.2867 286.0900 0296686 021.4595 339.9121 13.91846709227088
0 FENGYUN 1C DEB
1 37057U 99025EER 13286.21850990  .00000592  00000-0  34933-3 0  1747
2 37057 099.2860 288.1068 0296553 016.1452 344.8929 13.91849771227369
0 FENGYUN 1C DEB
1 37057U 99025EER 13288.80630968  .00000604  00000-0  35664-3 0  1752
2 37057 099.2857 290.7003 0296368 009.2151 351.4329 13.91853490227727
0 FENGYUN 1C DEB
1 37057U 99025EER 13291.25033401  .00000613  00000-0  36185-3 0  1764
2 37057 099.2862 293.1508 0296256 002.6082 357.6528 13.91856925228069
0 FENGYUN 1C DEB
1 37057U 99025EER 13293.19116900  .00000656  00000-0  38521-3 0  1779
2 37057 099.2861 295.0959 0296290 357.2325 002.7385 13.91861082228335
0 FENGYUN 1C DEB
1 37057U 99025EER 13295.20387898  .00000701  00000-0  41010-3 0  1788
2 37057 099.2861 297.1129 0296374 351.7632 007.8960 13.91865455228614
